[{"OBJECT_NAME":"STARLINK-36740","OBJECT_ID":"2026-026W","EPOCH":"2026-03-02T22:00:01.999584","MEAN_MOTION":15.74421442,"ECCENTRICITY":0.00018098,"INCLINATION":97.2854,"RA_OF_ASC_NODE":116.3056,"ARG_OF_PERICENTER":75.5686,"MEAN_ANOMALY":78.0391,"EPHEMERIS_TYPE":0,"CLASSIFICATION_TYPE":"U","NORAD_CAT_ID":67741,"ELEMENT_SET_NO":999,"REV_AT_EPOCH":422,"BSTAR":-0.015343015,"MEAN_MOTION_DOT":-0.01924551,"MEAN_MOTION_DDOT":0},{"OBJECT_NAME":"STARLINK-36693","OBJECT_ID":"2026-026X","EPOCH":"2026-03-02T22:00:01.999584","MEAN_MOTION":15.75085783,"ECCENTRICITY":0.00017919,"INCLINATION":97.2854,"RA_OF_ASC_NODE":116.2986,"ARG_OF_PERICENTER":73.2225,"MEAN_ANOMALY":61.5303,"EPHEMERIS_TYPE":0,"CLASSIFICATION_TYPE":"U","NORAD_CAT_ID":67742,"ELEMENT_SET_NO":999,"REV_AT_EPOCH":436,"BSTAR":-0.014877688,"MEAN_MOTION_DOT":-0.01921572,"MEAN_MOTION_DDOT":0},{"OBJECT_NAME":"STARLINK-36717","OBJECT_ID":"2026-026Y","EPOCH":"2026-03-02T22:00:01.999584","MEAN_MOTION":15.77187652,"ECCENTRICITY":0.00019277,"INCLINATION":97.2858,"RA_OF_ASC_NODE":116.3055,"ARG_OF_PERICENTER":68.5333,"MEAN_ANOMALY":90.3486,"EPHEMERIS_TYPE":0,"CLASSIFICATION_TYPE":"U","NORAD_CAT_ID":67743,"ELEMENT_SET_NO":999,"REV_AT_EPOCH":436,"BSTAR":-0.013523173,"MEAN_MOTION_DOT":-0.01917626,"MEAN_MOTION_DDOT":0},{"OBJECT_NAME":"STARLINK-36692","OBJECT_ID":"2026-026Z","EPOCH":"2026-03-02T22:00:01.999584","MEAN_MOTION":15.75947464,"ECCENTRICITY":0.00018904,"INCLINATION":97.2855,"RA_OF_ASC_NODE":116.3022,"ARG_OF_PERICENTER":69.2026,"MEAN_ANOMALY":77.8445,"EPHEMERIS_TYPE":0,"CLASSIFICATION_TYPE":"U","NORAD_CAT_ID":67744,"ELEMENT_SET_NO":999,"REV_AT_EPOCH":422,"BSTAR":-0.014284588,"MEAN_MOTION_DOT":-0.01917053,"MEAN_MOTION_DDOT":0},{"OBJECT_NAME":"2026-027A","OBJECT_ID":"2026-027A","EPOCH":"2026-03-02T21:53:37.093632","MEAN_MOTION":15.17548909,"ECCENTRICITY":0.00097589,"INCLINATION":97.4893,"RA_OF_ASC_NODE":190.9982,"ARG_OF_PERICENTER":218.9201,"MEAN_ANOMALY":141.1331,"EPHEMERIS_TYPE":0,"CLASSIFICATION_TYPE":"U","NORAD_CAT_ID":67746,"ELEMENT_SET_NO":999,"REV_AT_EPOCH":283,"BSTAR":0.00054006653,"MEAN_MOTION_DOT":0.00010792,"MEAN_MOTION_DDOT":0},{"OBJECT_NAME":"2026-027B","OBJECT_ID":"2026-027B","EPOCH":"2026-03-02T21:51:49.828896","MEAN_MOTION":15.17649356,"ECCENTRICITY":0.00098788,"INCLINATION":97.4888,"RA_OF_ASC_NODE":190.9984,"ARG_OF_PERICENTER":221.4388,"MEAN_ANOMALY":138.6098,"EPHEMERIS_TYPE":0,"CLASSIFICATION_TYPE":"U","NORAD_CAT_ID":67747,"ELEMENT_SET_NO":999,"REV_AT_EPOCH":283,"BSTAR":0.00053581638,"MEAN_MOTION_DOT":0.00010738,"MEAN_MOTION_DDOT":0},{"OBJECT_NAME":"2026-027C","OBJECT_ID":"2026-027C","EPOCH":"2026-03-02T21:49:57.981504","MEAN_MOTION":15.17702316,"ECCENTRICITY":0.00102059,"INCLINATION":97.49,"RA_OF_ASC_NODE":191.003,"ARG_OF_PERICENTER":224.0632,"MEAN_ANOMALY":135.9789,"EPHEMERIS_TYPE":0,"CLASSIFICATION_TYPE":"U","NORAD_CAT_ID":67748,"ELEMENT_SET_NO":999,"REV_AT_EPOCH":283,"BSTAR":0.00037447935,"MEAN_MOTION_DOT":7.493e-5,"MEAN_MOTION_DDOT":0},{"OBJECT_NAME":"2026-027D","OBJECT_ID":"2026-027D","EPOCH":"2026-03-02T21:46:25.578336","MEAN_MOTION":15.17985254,"ECCENTRICITY":0.00099333,"INCLINATION":97.4895,"RA_OF_ASC_NODE":191.005,"ARG_OF_PERICENTER":229.2407,"MEAN_ANOMALY":130.7966,"EPHEMERIS_TYPE":0,"CLASSIFICATION_TYPE":"U","NORAD_CAT_ID":67749,"ELEMENT_SET_NO":999,"REV_AT_EPOCH":278,"BSTAR":0.00063111057,"MEAN_MOTION_DOT":0.00012786,"MEAN_MOTION_DDOT":0},{"OBJECT_NAME":"2026-027E","OBJECT_ID":"2026-027E","EPOCH":"2026-03-02T21:46:27.697728","MEAN_MOTION":15.17955837,"ECCENTRICITY":0.00091267,"INCLINATION":97.4906,"RA_OF_ASC_NODE":191.0079,"ARG_OF_PERICENTER":230.2521,"MEAN_ANOMALY":129.7909,"EPHEMERIS_TYPE":0,"CLASSIFICATION_TYPE":"U","NORAD_CAT_ID":67750,"ELEMENT_SET_NO":999,"REV_AT_EPOCH":283,"BSTAR":0.00053608824,"MEAN_MOTION_DOT":0.00010837,"MEAN_MOTION_DDOT":0},{"OBJECT_NAME":"2026-027F","OBJECT_ID":"2026-027F","EPOCH":"2026-03-02T23:19:04.498176","MEAN_MOTION":15.18203395,"ECCENTRICITY":0.00103219,"INCLINATION":97.4906,"RA_OF_ASC_NODE":191.0758,"ARG_OF_PERICENTER":230.3063,"MEAN_ANOMALY":129.7262,"EPHEMERIS_TYPE":0,"CLASSIFICATION_TYPE":"U","NORAD_CAT_ID":67751,"ELEMENT_SET_NO":999,"REV_AT_EPOCH":284,"BSTAR":0.00087517572,"MEAN_MOTION_DOT":0.00017883,"MEAN_MOTION_DDOT":0},{"OBJECT_NAME":"2026-027G","OBJECT_ID":"2026-027G","EPOCH":"2026-03-02T23:19:46.550784","MEAN_MOTION":15.1806083,"ECCENTRICITY":0.00094477,"INCLINATION":97.4901,"RA_OF_ASC_NODE":191.0733,"ARG_OF_PERICENTER":232.3342,"MEAN_ANOMALY":127.7036,"EPHEMERIS_TYPE":0,"CLASSIFICATION_TYPE":"U","NORAD_CAT_ID":67752,"ELEMENT_SET_NO":999,"REV_AT_EPOCH":284,"BSTAR":0.00059550292,"MEAN_MOTION_DOT":0.00012085,"MEAN_MOTION_DDOT":0},{"OBJECT_NAME":"2026-027H","OBJECT_ID":"2026-027H","EPOCH":"2026-03-02T22:53:06.014112","MEAN_MOTION":15.69289484,"ECCENTRICITY":0.02348738,"INCLINATION":97.5127,"RA_OF_ASC_NODE":192.4489,"ARG_OF_PERICENTER":269.6433,"MEAN_ANOMALY":87.7915,"EPHEMERIS_TYPE":0,"CLASSIFICATION_TYPE":"U","NORAD_CAT_ID":67753,"ELEMENT_SET_NO":999,"REV_AT_EPOCH":292,"BSTAR":0.00065915741,"MEAN_MOTION_DOT":0.00423504,"MEAN_MOTION_DDOT":2.376648e-6},{"OBJECT_NAME":"2026-027J","OBJECT_ID":"2026-027J","EPOCH":"2026-03-02T21:57:50.584320","MEAN_MOTION":15.89781843,"ECCENTRICITY":0.01696349,"INCLINATION":97.5073,"RA_OF_ASC_NODE":192.6508,"ARG_OF_PERICENTER":268.7619,"MEAN_ANOMALY":89.4215,"EPHEMERIS_TYPE":0,"CLASSIFICATION_TYPE":"U","NORAD_CAT_ID":67754,"ELEMENT_SET_NO":999,"REV_AT_EPOCH":287,"BSTAR":0.0012709645,"MEAN_MOTION_DOT":0.01436619,"MEAN_MOTION_DDOT":2.440428e-6},{"OBJECT_NAME":"2026-028A","OBJECT_ID":"2026-028A","EPOCH":"2026-03-02T07:30:12.027744","MEAN_MOTION":0.99524419,"ECCENTRICITY":0.00420111,"INCLINATION":0.4879,"RA_OF_ASC_NODE":289.4342,"ARG_OF_PERICENTER":229.4346,"MEAN_ANOMALY":201.2678,"EPHEMERIS_TYPE":0,"CLASSIFICATION_TYPE":"U","NORAD_CAT_ID":67756,"ELEMENT_SET_NO":999,"REV_AT_EPOCH":18,"BSTAR":0,"MEAN_MOTION_DOT":-6.9e-7,"MEAN_MOTION_DDOT":0},{"OBJECT_NAME":"KUIPER-00159","OBJECT_ID":"2026-030A","EPOCH":"2026-03-02T22:17:47.308992","MEAN_MOTION":15.35407178,"ECCENTRICITY":0.000435,"INCLINATION":51.8838,"RA_OF_ASC_NODE":251.7624,"ARG_OF_PERICENTER":27.1298,"MEAN_ANOMALY":332.9915,"EPHEMERIS_TYPE":0,"CLASSIFICATION_TYPE":"U","NORAD_CAT_ID":67764,"ELEMENT_SET_NO":999,"REV_AT_EPOCH":405,"BSTAR":0.0010039442,"MEAN_MOTION_DOT":0.00034848,"MEAN_MOTION_DDOT":0},{"OBJECT_NAME":"KUIPER-00160","OBJECT_ID":"2026-030B","EPOCH":"2026-03-02T22:19:09.706944","MEAN_MOTION":15.35316036,"ECCENTRICITY":0.00043571,"INCLINATION":51.8801,"RA_OF_ASC_NODE":251.7612,"ARG_OF_PERICENTER":38.9112,"MEAN_ANOMALY":321.2187,"EPHEMERIS_TYPE":0,"CLASSIFICATION_TYPE":"U","NORAD_CAT_ID":67765,"ELEMENT_SET_NO":999,"REV_AT_EPOCH":405,"BSTAR":0.00076555034,"MEAN_MOTION_DOT":0.00026374,"MEAN_MOTION_DDOT":0},{"OBJECT_NAME":"KUIPER-00177","OBJECT_ID":"2026-030C","EPOCH":"2026-03-02T22:03:46.278432","MEAN_MOTION":15.36181588,"ECCENTRICITY":5.318e-5,"INCLINATION":51.8826,"RA_OF_ASC_NODE":251.6963,"ARG_OF_PERICENTER":22.4191,"MEAN_ANOMALY":337.6819,"EPHEMERIS_TYPE":0,"CLASSIFICATION_TYPE":"U","NORAD_CAT_ID":67766,"ELEMENT_SET_NO":999,"REV_AT_EPOCH":405,"BSTAR":0.00077052652,"MEAN_MOTION_DOT":0.000273,"MEAN_MOTION_DDOT":0},{"OBJECT_NAME":"KUIPER-00178","OBJECT_ID":"2026-030D","EPOCH":"2026-03-02T22:21:30.059424","MEAN_MOTION":15.3519145,"ECCENTRICITY":0.00057277,"INCLINATION":51.8823,"RA_OF_ASC_NODE":251.7766,"ARG_OF_PERICENTER":28.4735,"MEAN_ANOMALY":331.6563,"EPHEMERIS_TYPE":0,"CLASSIFICATION_TYPE":"U","NORAD_CAT_ID":67767,"ELEMENT_SET_NO":999,"REV_AT_EPOCH":405,"BSTAR":0.0008103657,"MEAN_MOTION_DOT":0.00027839,"MEAN_MOTION_DDOT":0},{"OBJECT_NAME":"KUIPER-00180","OBJECT_ID":"2026-030E","EPOCH":"2026-03-02T22:58:12.273600","MEAN_MOTION":15.3218545,"ECCENTRICITY":0.00158508,"INCLINATION":51.8798,"RA_OF_ASC_NODE":251.9342,"ARG_OF_PERICENTER":48.7894,"MEAN_ANOMALY":311.4454,"EPHEMERIS_TYPE":0,"CLASSIFICATION_TYPE":"U","NORAD_CAT_ID":67768,"ELEMENT_SET_NO":999,"REV_AT_EPOCH":405,"BSTAR":0.00038922601,"MEAN_MOTION_DOT":0.00011964,"MEAN_MOTION_DDOT":0},{"OBJECT_NAME":"KUIPER-00197","OBJECT_ID":"2026-030F","EPOCH":"2026-03-02T22:06:34.278048","MEAN_MOTION":15.36058846,"ECCENTRICITY":0.00010795,"INCLINATION":51.8827,"RA_OF_ASC_NODE":251.709,"ARG_OF_PERICENTER":66.7962,"MEAN_ANOMALY":293.3138,"EPHEMERIS_TYPE":0,"CLASSIFICATION_TYPE":"U","NORAD_CAT_ID":67769,"ELEMENT_SET_NO":999,"REV_AT_EPOCH":405,"BSTAR":0.00078230771,"MEAN_MOTION_DOT":0.00027615,"MEAN_MOTION_DDOT":0},{"OBJECT_NAME":"KUIPER-00198","OBJECT_ID":"2026-030G","EPOCH":"2026-03-02T22:12:44.547840","MEAN_MOTION":15.35700164,"ECCENTRICITY":0.0002786,"INCLINATION":51.8803,"RA_OF_ASC_NODE":251.7329,"ARG_OF_PERICENTER":33.2245,"MEAN_ANOMALY":326.8915,"EPHEMERIS_TYPE":0,"CLASSIFICATION_TYPE":"U","NORAD_CAT_ID":67770,"ELEMENT_SET_NO":999,"REV_AT_EPOCH":405,"BSTAR":0.00076564973,"MEAN_MOTION_DOT":0.00026705,"MEAN_MOTION_DDOT":0},{"OBJECT_NAME":"KUIPER-00199","OBJECT_ID":"2026-030H","EPOCH":"2026-03-02T22:40:12.733248","MEAN_MOTION":15.34042411,"ECCENTRICITY":0.00103103,"INCLINATION":51.8795,"RA_OF_ASC_NODE":251.8547,"ARG_OF_PERICENTER":41.6892,"MEAN_ANOMALY":318.4877,"EPHEMERIS_TYPE":0,"CLASSIFICATION_TYPE":"U","NORAD_CAT_ID":67771,"ELEMENT_SET_NO":999,"REV_AT_EPOCH":405,"BSTAR":0.00088063526,"MEAN_MOTION_DOT":0.00029226,"MEAN_MOTION_DDOT":0},{"OBJECT_NAME":"KUIPER-00200","OBJECT_ID":"2026-030J","EPOCH":"2026-03-02T21:56:05.654976","MEAN_MOTION":15.36704553,"ECCENTRICITY":0.00016903,"INCLINATION":51.881,"RA_OF_ASC_NODE":251.6596,"ARG_OF_PERICENTER":202.791,"MEAN_ANOMALY":157.3002,"EPHEMERIS_TYPE":0,"CLASSIFICATION_TYPE":"U","NORAD_CAT_ID":67772,"ELEMENT_SET_NO":999,"REV_AT_EPOCH":405,"BSTAR":0.0010547031,"MEAN_MOTION_DOT":0.00038208,"MEAN_MOTION_DDOT":0}]
